ONEWEB-0162             
1 48056U 21025Q   26164.93041104 -.00000223  00000+0 -64677-3 0  9995
2 48056  87.8955 320.8720 0001992  94.6328 265.5029 13.13470129253114
ONEWEB-0155             
1 48057U 21025R   26164.93731782 -.00000155  00000+0 -46028-3 0  9998
2 48057  87.8955 320.8669 0001790 101.7889 258.3441 13.13470009253255
ONEWEB-0149             
1 48058U 21025S   26165.18786794  .00000306  00000+0  80187-3 0  9990
2 48058  87.8958 320.8204 0002028  93.7954 266.3407 13.13469897253098
ONEWEB-0148             
1 48059U 21025T   26165.15061453 -.00000244  00000+0 -70279-3 0  9990
2 48059  87.8951 320.8347 0002431  94.3141 265.8266 13.13470236253213
ONEWEB-0160             
1 48060U 21025U   26165.16754154 -.00000098  00000+0 -30311-3 0  9990
2 48060  87.8950 320.8276 0001481  73.1904 286.9387 13.13471201253166
ONEWEB-0163             
1 48061U 21025V   26165.15230059 -.00000267  00000+0 -76628-3 0  9992
2 48061  87.8958 320.8249 0001941 104.5752 255.5593 13.13470493253282
ONEWEB-0159             
1 48062U 21025W   26164.99148473 -.00000299  00000+0 -85333-3 0  9990
2 48062  87.8961 320.8501 0001896 104.1244 256.0096 13.13470524253187
ONEWEB-0164             
1 48063U 21025X   26165.12522306  .00000191  00000+0  48760-3 0  9990
2 48063  87.8961 320.8301 0001746  94.4088 265.7241 13.13469662253187
ONEWEB-0167             
1 48064U 21025Y   26165.15313934 -.00000333  00000+0 -94756-3 0  9995
2 48064  87.8951 320.8350 0001629 117.6396 242.4899 13.13468042253172
ONEWEB-0166             
1 48065U 21025Z   26165.17599622  .00000159  00000+0  40129-3 0  9997
2 48065  87.8960 320.8014 0002015  96.9762 263.1596 13.13471875253257
ONEWEB-0151             
1 48066U 21025AA  26165.17769706  .00000209  00000+0  53727-3 0  9994
2 48066  87.8951 320.8180 0001725  99.4665 260.6659 13.13470808253199
ONEWEB-0170             
1 48067U 21025AB  26165.18616617  .00000264  00000+0  68852-3 0  9994
2 48067  87.8952 320.8183 0001349  93.0650 267.0634 13.13470095253158
ONEWEB-0168             
1 48068U 21025AC  26164.94239539  .00000014  00000+0  38401-5 0  9994
2 48068  87.8959 320.8664 0001953 100.7035 259.4314 13.13470165253130
ONEWEB-0173             
1 48069U 21025AD  26164.93393084 -.00000208  00000+0 -60521-3 0  9993
2 48069  87.8951 320.8700 0001873 108.2838 251.8495 13.13470048253371
ONEWEB-0171             
1 48070U 21025AE  26165.12353209  .00000215  00000+0  55432-3 0  9993
2 48070  87.8950 320.8403 0001694  96.8336 263.2986 13.13470061253218
ONEWEB-0172             
1 48071U 21025AF  26165.17938751  .00000255  00000+0  66353-3 0  9998
2 48071  87.8956 320.8191 0001766 101.9787 258.1540 13.13471784254119
ONEWEB-0174             
1 48072U 21025AG  26165.16077662 -.00000270  00000+0 -77460-3 0  9993
2 48072  87.8955 320.8223 0001981  96.8654 263.2700 13.13470562253431
ONEWEB-0175             
1 48073U 21025AH  26165.19124935  .00000334  00000+0  87834-3 0  9998
2 48073  87.8961 320.8001 0001482 100.8193 259.3103 13.13469954253091
ONEWEB-0177             
1 48074U 21025AJ  26165.12691403  .00000163  00000+0  41170-3 0  9994
2 48074  87.8957 320.8314 0001988 100.1443 259.9911 13.13470454253276
ONEWEB-0178             
1 48075U 21025AK  26164.99330612 -.00000281  00000+0 -80521-3 0  9997
2 48075  87.8944 320.8708 0001690 104.0598 256.0719 13.13468155253307
ONEWEB-0108             
1 48076U 21025AL  26165.18108801  .00000314  00000+0  82475-3 0  9998
2 48076  87.8959 320.8120 0001901  90.2940 269.8406 13.13470495253253
ONEWEB-0169             
1 48077U 21025AM  26165.13707079 -.00000109  00000+0 -33228-3 0  9992
2 48077  87.8954 320.8288 0001935  96.0890 264.0459 13.13469461251905
ONEWEB-0176             
1 48210U 21031A   26165.05816200 -.00000148  00000+0 -43417-3 0  9990
2 48210  87.8963 290.3227 0001859 103.2032 256.9305 13.14503209247907
ONEWEB-0184             
1 48211U 21031B   26165.10732058  .00000177  00000+0  44381-3 0  9996
2 48211  87.8969 290.3136 0001415 123.8645 236.2619 13.14502252247882
ONEWEB-0179             
1 48212U 21031C   26165.07656672  .00000156  00000+0  46116-4 0  9996
2 48212  87.8985 287.7211 0218611 267.4572  90.1580 14.25520527248600
ONEWEB-0180             
1 48213U 21031D   26164.88214172  .00000145  00000+0  35531-3 0  9996
2 48213  87.8967 290.3546 0002113 112.2928 247.8426 13.14502638247780
ONEWEB-0218             
1 48214U 21031E   26165.05657456 -.00000097  00000+0 -29550-3 0  9995
2 48214  87.8970 290.3189 0001712 128.4259 231.7024 13.14502845247964
ONEWEB-0209             
1 48215U 21031F   26165.04546413  .00000051  00000+0  10391-3 0  9996
2 48215  87.8961 290.3385 0002107 104.2813 255.8550 13.14501583247969
ONEWEB-0198             
1 48216U 21031G   26165.10587808  .00000239  00000+0  60970-3 0  9993
2 48216  87.8953 290.3260 0002006 113.5432 246.5909 13.14502608248089
ONEWEB-0189             
1 48217U 21031H   26165.04230661  .00000083  00000+0  18932-3 0  9997
2 48217  87.8966 290.3244 0001935 110.8479 249.2858 13.14503005247812
