OBJECT_NAME,OBJECT_ID,EPOCH,MEAN_MOTION,ECCENTRICITY,INCLINATION,RA_OF_ASC_NODE,ARG_OF_PERICENTER,MEAN_ANOMALY,EPHEMERIS_TYPE,CLASSIFICATION_TYPE,NORAD_CAT_ID,ELEMENT_SET_NO,REV_AT_EPOCH,BSTAR,MEAN_MOTION_DOT,MEAN_MOTION_DDOT
ONEWEB-0162,2021-025Q,2026-06-13T22:19:47.513856,13.13470129,.0001992,87.8955,320.8720,94.6328,265.5029,0,U,48056,999,25311,-.64677E-3,-.223E-5,0
ONEWEB-0155,2021-025R,2026-06-13T22:29:44.259648,13.13470009,.000179,87.8955,320.8669,101.7889,258.3441,0,U,48057,999,25325,-.46028E-3,-.155E-5,0
ONEWEB-0149,2021-025S,2026-06-14T04:30:31.790016,13.13469897,.0002028,87.8958,320.8204,93.7954,266.3407,0,U,48058,999,25309,.80187E-3,.306E-5,0
ONEWEB-0148,2021-025T,2026-06-14T03:36:53.095392,13.13470236,.0002431,87.8951,320.8347,94.3141,265.8266,0,U,48059,999,25321,-.70279E-3,-.244E-5,0
ONEWEB-0160,2021-025U,2026-06-14T04:01:15.589056,13.13471201,.0001481,87.8950,320.8276,73.1904,286.9387,0,U,48060,999,25316,-.30311E-3,-.98E-6,0
ONEWEB-0163,2021-025V,2026-06-14T03:39:18.770976,13.13470493,.0001941,87.8958,320.8249,104.5752,255.5593,0,U,48061,999,25328,-.76628E-3,-.267E-5,0
ONEWEB-0159,2021-025W,2026-06-13T23:47:44.280672,13.13470524,.0001896,87.8961,320.8501,104.1244,256.0096,0,U,48062,999,25318,-.85333E-3,-.299E-5,0
ONEWEB-0164,2021-025X,2026-06-14T03:00:19.272384,13.13469662,.0001746,87.8961,320.8301,94.4088,265.7241,0,U,48063,999,25318,.4876E-3,.191E-5,0
ONEWEB-0167,2021-025Y,2026-06-14T03:40:31.238976,13.13468042,.0001629,87.8951,320.8350,117.6396,242.4899,0,U,48064,999,25317,-.94756E-3,-.333E-5,0
ONEWEB-0166,2021-025Z,2026-06-14T04:13:26.073408,13.13471875,.0002015,87.8960,320.8014,96.9762,263.1596,0,U,48065,999,25325,.40129E-3,.159E-5,0
ONEWEB-0151,2021-025AA,2026-06-14T04:15:53.025984,13.13470808,.0001725,87.8951,320.8180,99.4665,260.6659,0,U,48066,999,25319,.53727E-3,.209E-5,0
ONEWEB-0170,2021-025AB,2026-06-14T04:28:04.757088,13.13470095,.0001349,87.8952,320.8183,93.0650,267.0634,0,U,48067,999,25315,.68852E-3,.264E-5,0
ONEWEB-0168,2021-025AC,2026-06-13T22:37:02.961696,13.13470165,.0001953,87.8959,320.8664,100.7035,259.4314,0,U,48068,999,25313,.38401E-5,.14E-6,0
ONEWEB-0173,2021-025AD,2026-06-13T22:24:51.624576,13.13470048,.0001873,87.8951,320.8700,108.2838,251.8495,0,U,48069,999,25337,-.60521E-3,-.208E-5,0
ONEWEB-0171,2021-025AE,2026-06-14T02:57:53.172576,13.13470061,.0001694,87.8950,320.8403,96.8336,263.2986,0,U,48070,999,25321,.55432E-3,.215E-5,0
ONEWEB-0172,2021-025AF,2026-06-14T04:18:19.080864,13.13471784,.0001766,87.8956,320.8191,101.9787,258.1540,0,U,48071,999,25411,.66353E-3,.255E-5,0
ONEWEB-0174,2021-025AG,2026-06-14T03:51:31.099968,13.13470562,.0001981,87.8955,320.8223,96.8654,263.2700,0,U,48072,999,25343,-.7746E-3,-.27E-5,0
ONEWEB-0175,2021-025AH,2026-06-14T04:35:23.943840,13.13469954,.0001482,87.8961,320.8001,100.8193,259.3103,0,U,48073,999,25309,.87834E-3,.334E-5,0
ONEWEB-0177,2021-025AJ,2026-06-14T03:02:45.372192,13.13470454,.0001988,87.8957,320.8314,100.1443,259.9911,0,U,48074,999,25327,.4117E-3,.163E-5,0
ONEWEB-0178,2021-025AK,2026-06-13T23:50:21.648768,13.13468155,.000169,87.8944,320.8708,104.0598,256.0719,0,U,48075,999,25330,-.80521E-3,-.281E-5,0
ONEWEB-0108,2021-025AL,2026-06-14T04:20:46.004064,13.13470495,.0001901,87.8959,320.8120,90.2940,269.8406,0,U,48076,999,25325,.82475E-3,.314E-5,0
ONEWEB-0169,2021-025AM,2026-06-14T03:17:22.916256,13.13469461,.0001935,87.8954,320.8288,96.0890,264.0459,0,U,48077,999,25190,-.33228E-3,-.109E-5,0
ONEWEB-0176,2021-031A,2026-06-14T01:23:45.196800,13.14503209,.0001859,87.8963,290.3227,103.2032,256.9305,0,U,48210,999,24790,-.43417E-3,-.148E-5,0
ONEWEB-0184,2021-031B,2026-06-14T02:34:32.498112,13.14502252,.0001415,87.8969,290.3136,123.8645,236.2619,0,U,48211,999,24788,.44381E-3,.177E-5,0
ONEWEB-0179,2021-031C,2026-06-14T01:50:15.364608,14.25520527,.0218611,87.8985,287.7211,267.4572,90.1580,0,U,48212,999,24860,.46116E-4,.156E-5,0
ONEWEB-0180,2021-031D,2026-06-13T21:10:17.044608,13.14502638,.0002113,87.8967,290.3546,112.2928,247.8426,0,U,48213,999,24778,.35531E-3,.145E-5,0
ONEWEB-0218,2021-031E,2026-06-14T01:21:28.041984,13.14502845,.0001712,87.8970,290.3189,128.4259,231.7024,0,U,48214,999,24796,-.2955E-3,-.97E-6,0
ONEWEB-0209,2021-031F,2026-06-14T01:05:28.100832,13.14501583,.0002107,87.8961,290.3385,104.2813,255.8550,0,U,48215,999,24796,.10391E-3,.51E-6,0
ONEWEB-0198,2021-031G,2026-06-14T02:32:27.866112,13.14502608,.0002006,87.8953,290.3260,113.5432,246.5909,0,U,48216,999,24808,.6097E-3,.239E-5,0
ONEWEB-0189,2021-031H,2026-06-14T01:00:55.291104,13.14503005,.0001935,87.8966,290.3244,110.8479,249.2858,0,U,48217,999,24781,.18932E-3,.83E-6,0
